[{"OBJECT_NAME":"STARLINK-30939","OBJECT_ID":"2023-178V","EPOCH":"2026-03-09T23:17:11.646816","MEAN_MOTION":15.3017535,"ECCENTRICITY":9.023e-5,"INCLINATION":53.1615,"RA_OF_ASC_NODE":359.8204,"ARG_OF_PERICENTER":65.0576,"MEAN_ANOMALY":295.0518,"EPHEMERIS_TYPE":0,"CLASSIFICATION_TYPE":"U","NORAD_CAT_ID":58393,"ELEMENT_SET_NO":999,"REV_AT_EPOCH":12980,"BSTAR":0.00011407549,"MEAN_MOTION_DOT":3.019e-5,"MEAN_MOTION_DDOT":0},{"OBJECT_NAME":"POEM","OBJECT_ID":"2022-072E","EPOCH":"2026-03-08T08:06:01.299456","MEAN_MOTION":15.22764653,"ECCENTRICITY":0.00236837,"INCLINATION":9.9515,"RA_OF_ASC_NODE":116.6548,"ARG_OF_PERICENTER":142.2805,"MEAN_ANOMALY":217.9074,"EPHEMERIS_TYPE":0,"CLASSIFICATION_TYPE":"U","NORAD_CAT_ID":52939,"ELEMENT_SET_NO":999,"REV_AT_EPOCH":20410,"BSTAR":0.00045784559,"MEAN_MOTION_DOT":0.00012084,"MEAN_MOTION_DDOT":0}]
